{"type": "FeatureCollection", "features": [ {"type": "Feature", "properties": {"norad_id": 41556, "name": "ZIYUAN 3-02 (ZY 3-02)", "group": "resource", "lat": -69.84266703063261, "lon": 94.55254215900584, "alt_km": 509.5910950976704, "timestamp": "2025-12-25T20:42:38.344575+00:00", "meta": {"OBJECT_NAME": "ZIYUAN 3-02 (ZY 3-02)", "OBJECT_ID": "2016-033A", "EPOCH": "2025-12-25T06:48:55.955808", "MEAN_MOTION": 15.21231137, "ECCENTRICITY": 0.00114485, "INCLINATION": 97.4024, "RA_OF_ASC_NODE": 73.2407, "ARG_OF_PERICENTER": 199.4078, "MEAN_ANOMALY": 160.6724, "EPHEMERIS_TYPE": 0, "CLASSIFICATION_TYPE": "U", "NORAD_CAT_ID": 41556, "ELEMENT_SET_NO": 999, "REV_AT_EPOCH": 53154, "BSTAR": 0.00036309939, "MEAN_MOTION_DOT": 8.053e-05, "MEAN_MOTION_DDOT": 0}, "tle": {"line1": "1 41556U 16033A   25359.28398097  .00008053  00000+0  36310-3 0  9995", "line2": "2 41556  97.4024  73.2407 0011448 199.4078 160.6724 15.21231137531548"}}, "geometry": {"type": "Point", "coordinates": [94.55254215900584, -69.84266703063261]}}, {"type": "Feature", "properties": {"norad_id": 41599, "name": "CARTOSAT-2C", "group": "resource", "lat": 43.44061246913384, "lon": -115.88099602729203, "alt_km": 507.6399611043498, "timestamp": "2025-12-25T20:42:38.344585+00:00", "meta": {"OBJECT_NAME": "CARTOSAT-2C", "OBJECT_ID": "2016-040A", "EPOCH": "2025-12-25T05:53:16.436832", "MEAN_MOTION": 15.19228696, "ECCENTRICITY": 0.00106198, "INCLINATION": 97.4743, "RA_OF_ASC_NODE": 56.3659, "ARG_OF_PERICENTER": 23.4032, "MEAN_ANOMALY": 336.7684, "EPHEMERIS_TYPE": 0, "CLASSIFICATION_TYPE": "U", "NORAD_CAT_ID": 41599, "ELEMENT_SET_NO": 999, "REV_AT_EPOCH": 52730, "BSTAR": 0.00027795557, "MEAN_MOTION_DOT": 5.795e-05, "MEAN_MOTION_DDOT": 0}, "tle": {"line1": "1 41599U 16040A   25359.24532913  .00005795  00000+0  27796-3 0  9991", "line2": "2 41599  97.4743  56.3659 0010619  23.4032 336.7684 15.19228696527302"}}, "geometry": {"type": "Point", "coordinates": [-115.88099602729203, 43.44061246913384]}}, {"type": "Feature", "properties": {"norad_id": 41601, "name": "SKYSAT-C1", "group": "resource", "lat": 71.50373332717244, "lon": -122.37727898907615, "alt_km": 461.06655922263235, "timestamp": "2025-12-25T20:42:38.344596+00:00", "meta": {"OBJECT_NAME": "SKYSAT-C1", "OBJECT_ID": "2016-040C", "EPOCH": "2025-12-25T01:26:37.321152", "MEAN_MOTION": 15.32807797, "ECCENTRICITY": 9.313e-05, "INCLINATION": 96.9806, "RA_OF_ASC_NODE": 35.379, "ARG_OF_PERICENTER": 322.4418, "MEAN_ANOMALY": 37.676, "EPHEMERIS_TYPE": 0, "CLASSIFICATION_TYPE": "U", "NORAD_CAT_ID": 41601, "ELEMENT_SET_NO": 999, "REV_AT_EPOCH": 53116, "BSTAR": 0.00032372766, "MEAN_MOTION_DOT": 0.00010188, "MEAN_MOTION_DDOT": 0}, "tle": {"line1": "1 41601U 16040C   25359.06015418  .00010188  00000+0  32373-3 0  9990", "line2": "2 41601  96.9806  35.3790 0000931 322.4418  37.6760 15.32807797531160"}}, "geometry": {"type": "Point", "coordinates": [-122.37727898907615, 71.50373332717244]}}, {"type": "Feature", "properties": {"norad_id": 41603, "name": "LAPAN-A3", "group": "resource", "lat": -18.94773982008019, "lon": 174.47475898976708, "alt_km": 475.0926340652768, "timestamp": "2025-12-25T20:42:38.344607+00:00", "meta": {"OBJECT_NAME": "LAPAN-A3", "OBJECT_ID": "2016-040E", "EPOCH": "2025-12-25T07:18:00.369216", "MEAN_MOTION": 15.31653486, "ECCENTRICITY": 0.00086628, "INCLINATION": 97.1435, "RA_OF_ASC_NODE": 356.4038, "ARG_OF_PERICENTER": 281.5741, "MEAN_ANOMALY": 78.4529, "EPHEMERIS_TYPE": 0, "CLASSIFICATION_TYPE": "U", "NORAD_CAT_ID": 41603, "ELEMENT_SET_NO": 999, "REV_AT_EPOCH": 52818, "BSTAR": 0.00015581572, "MEAN_MOTION_DOT": 4.692e-05, "MEAN_MOTION_DDOT": 0}, "tle": {"line1": "1 41603U 16040E   25359.30417094  .00004692  00000+0  15582-3 0  9991", "line2": "2 41603  97.1435 356.4038 0008662 281.5741  78.4529 15.31653486528185"}}, "geometry": {"type": "Point", "coordinates": [174.47475898976708, -18.94773982008019]}}, {"type": "Feature", "properties": {"norad_id": 41604, "name": "BIROS", "group": "resource", "lat": 3.588569849464698, "lon": 31.425934654385554, "alt_km": 292.12455865229003, "timestamp": "2025-12-25T20:42:38.344618+00:00", "meta": {"OBJECT_NAME": "BIROS", "OBJECT_ID": "2016-040F", "EPOCH": "2025-12-25T01:07:09.917184", "MEAN_MOTION": 15.94683958, "ECCENTRICITY": 0.00039046, "INCLINATION": 97.0657, "RA_OF_ASC_NODE": 31.0163, "ARG_OF_PERICENTER": 124.4663, "MEAN_ANOMALY": 235.6982, "EPHEMERIS_TYPE": 0, "CLASSIFICATION_TYPE": "U", "NORAD_CAT_ID": 41604, "ELEMENT_SET_NO": 999, "REV_AT_EPOCH": 53068, "BSTAR": 0.0006151692, "MEAN_MOTION_DOT": 0.00232464, "MEAN_MOTION_DDOT": 2.2718232e-05}, "tle": {"line1": "1 41604U 16040F   25359.04664256  .00232464  22718-4  61517-3 0  9991", "line2": "2 41604  97.0657  31.0163 0003904 124.4663 235.6982 15.94683958530682"}}, "geometry": {"type": "Point", "coordinates": [31.425934654385554, 3.588569849464698]}}, {"type": "Feature", "properties": {"norad_id": 41727, "name": "GAOFEN-3", "group": "resource", "lat": 77.52876388119394, "lon": -36.694522183970484, "alt_km": 743.1949048654878, "timestamp": "2025-12-25T20:42:38.344628+00:00", "meta": {"OBJECT_NAME": "GAOFEN-3", "OBJECT_ID": "2016-049A", "EPOCH": "2025-12-25T07:01:01.613856", "MEAN_MOTION": 14.42217077, "ECCENTRICITY": 0.00010994, "INCLINATION": 98.4036, "RA_OF_ASC_NODE": 4.6869, "ARG_OF_PERICENTER": 55.1491, "MEAN_ANOMALY": 304.9802, "EPHEMERIS_TYPE": 0, "CLASSIFICATION_TYPE": "U", "NORAD_CAT_ID": 41727, "ELEMENT_SET_NO": 999, "REV_AT_EPOCH": 49358, "BSTAR": 8.1458993e-05, "MEAN_MOTION_DOT": 2.25e-06, "MEAN_MOTION_DDOT": 0}, "tle": {"line1": "1 41727U 16049A   25359.29237979  .00000225  00000+0  81459-4 0  9992", "line2": "2 41727  98.4036   4.6869 0001099  55.1491 304.9802 14.42217077493580"}}, "geometry": {"type": "Point", "coordinates": [-36.694522183970484, 77.52876388119394]}}, {"type": "Feature", "properties": {"norad_id": 41771, "name": "SKYSAT-C4", "group": "resource", "lat": 38.43875954330564, "lon": -150.04138385725102, "alt_km": 433.9796998794891, "timestamp": "2025-12-25T20:42:38.344638+00:00", "meta": {"OBJECT_NAME": "SKYSAT-C4", "OBJECT_ID": "2016-058B", "EPOCH": "2025-12-25T02:58:33.098880", "MEAN_MOTION": 15.42597663, "ECCENTRICITY": 0.00025562, "INCLINATION": 96.9362, "RA_OF_ASC_NODE": 23.7104, "ARG_OF_PERICENTER": 123.3164, "MEAN_ANOMALY": 236.833, "EPHEMERIS_TYPE": 0, "CLASSIFICATION_TYPE": "U", "NORAD_CAT_ID": 41771, "ELEMENT_SET_NO": 999, "REV_AT_EPOCH": 51858, "BSTAR": 0.00036070781, "MEAN_MOTION_DOT": 0.00015617, "MEAN_MOTION_DDOT": 0}, "tle": {"line1": "1 41771U 16058B   25359.12399420  .00015617  00000+0  36071-3 0  9993", "line2": "2 41771  96.9362  23.7104 0002556 123.3164 236.8330 15.42597663518582"}}, "geometry": {"type": "Point", "coordinates": [-150.04138385725102, 38.43875954330564]}}, {"type": "Feature", "properties": {"norad_id": 41772, "name": "SKYSAT-C5", "group": "resource", "lat": 21.81184936440381, "lon": 40.21659415751315, "alt_km": 465.8865058351712, "timestamp": "2025-12-25T20:42:38.344649+00:00", "meta": {"OBJECT_NAME": "SKYSAT-C5", "OBJECT_ID": "2016-058C", "EPOCH": "2025-12-25T01:49:46.552800", "MEAN_MOTION": 15.3409486, "ECCENTRICITY": 0.0003967, "INCLINATION": 97.0737, "RA_OF_ASC_NODE": 42.3114, "ARG_OF_PERICENTER": 231.5105, "MEAN_ANOMALY": 128.5783, "EPHEMERIS_TYPE": 0, "CLASSIFICATION_TYPE": "U", "NORAD_CAT_ID": 41772, "ELEMENT_SET_NO": 999, "REV_AT_EPOCH": 51705, "BSTAR": 0.00031270755, "MEAN_MOTION_DOT": 0.00010248, "MEAN_MOTION_DDOT": 0}, "tle": {"line1": "1 41772U 16058C   25359.07623325  .00010248  00000+0  31271-3 0  9994", "line2": "2 41772  97.0737  42.3114 0003967 231.5105 128.5783 15.34094860517055"}}, "geometry": {"type": "Point", "coordinates": [40.21659415751315, 21.81184936440381]}}, {"type": "Feature", "properties": {"norad_id": 41773, "name": "SKYSAT-C2", "group": "resource", "lat": -9.315696782332369, "lon": -157.32653035949943, "alt_km": 459.4109739824071, "timestamp": "2025-12-25T20:42:38.344659+00:00", "meta": {"OBJECT_NAME": "SKYSAT-C2", "OBJECT_ID": "2016-058D", "EPOCH": "2025-12-25T01:08:47.943168", "MEAN_MOTION": 15.37542437, "ECCENTRICITY": 0.00027847, "INCLINATION": 97.0351, "RA_OF_ASC_NODE": 23.0533, "ARG_OF_PERICENTER": 357.0422, "MEAN_ANOMALY": 3.0807, "EPHEMERIS_TYPE": 0, "CLASSIFICATION_TYPE": "U", "NORAD_CAT_ID": 41773, "ELEMENT_SET_NO": 999, "REV_AT_EPOCH": 51825, "BSTAR": 0.00032233433, "MEAN_MOTION_DOT": 0.00011801, "MEAN_MOTION_DDOT": 0}, "tle": {"line1": "1 41773U 16058D   25359.04777712  .00011801  00000+0  32233-3 0  9997", "line2": "2 41773  97.0351  23.0533 0002784 357.0422   3.0807 15.37542437518259"}}, "geometry": {"type": "Point", "coordinates": [-157.32653035949943, -9.315696782332369]}}, {"type": "Feature", "properties": {"norad_id": 41774, "name": "SKYSAT-C3", "group": "resource", "lat": -2.2518245141893742, "lon": 33.27386489797797, "alt_km": 435.5755069448178, "timestamp": "2025-12-25T20:42:38.344669+00:00", "meta": {"OBJECT_NAME": "SKYSAT-C3", "OBJECT_ID": "2016-058E", "EPOCH": "2025-12-25T00:30:39.324672", "MEAN_MOTION": 15.44829659, "ECCENTRICITY": 0.00021115, "INCLINATION": 96.9281, "RA_OF_ASC_NODE": 32.197, "ARG_OF_PERICENTER": 105.7849, "MEAN_ANOMALY": 254.3634, "EPHEMERIS_TYPE": 0, "CLASSIFICATION_TYPE": "U", "NORAD_CAT_ID": 41774, "ELEMENT_SET_NO": 999, "REV_AT_EPOCH": 51915, "BSTAR": 0.00043161699, "MEAN_MOTION_DOT": 0.00020176, "MEAN_MOTION_DDOT": 0}, "tle": {"line1": "1 41774U 16058E   25359.02128848  .00020176  00000+0  43162-3 0  9994", "line2": "2 41774  96.9281  32.1970 0002111 105.7849 254.3634 15.44829659519152"}}, "geometry": {"type": "Point", "coordinates": [33.27386489797797, -2.2518245141893742]}}]}